1 29155U 06018A   12249.37566505 -.00000265 +00000-0 +10000-3 0 02094
2 29155 000.0620 149.8736 0003376 341.1836 274.5074 01.00273105023053